[{"OBJECT_NAME":"NUSAT-48 (HENRIETTA LEAVITT)","OBJECT_ID":"2024-149AG","EPOCH":"2026-03-09T19:19:17.269536","MEAN_MOTION":15.29812597,"ECCENTRICITY":0.00027538,"INCLINATION":97.3923,"RA_OF_ASC_NODE":150.8264,"ARG_OF_PERICENTER":263.3026,"MEAN_ANOMALY":96.7901,"EPHEMERIS_TYPE":0,"CLASSIFICATION_TYPE":"U","NORAD_CAT_ID":60498,"ELEMENT_SET_NO":999,"REV_AT_EPOCH":8694,"BSTAR":0.00045211745,"MEAN_MOTION_DOT":0.00012988,"MEAN_MOTION_DDOT":0},{"OBJECT_NAME":"STARLINK-33898","OBJECT_ID":"2025-101J","EPOCH":"2026-03-09T04:21:36.497952","MEAN_MOTION":15.27592458,"ECCENTRICITY":0.00022138,"INCLINATION":43.0071,"RA_OF_ASC_NODE":1.1709,"ARG_OF_PERICENTER":260.0031,"MEAN_ANOMALY":100.0571,"EPHEMERIS_TYPE":0,"CLASSIFICATION_TYPE":"U","NORAD_CAT_ID":64002,"ELEMENT_SET_NO":999,"REV_AT_EPOCH":4697,"BSTAR":0.0013008936,"MEAN_MOTION_DOT":0.00035724,"MEAN_MOTION_DDOT":0}]
